IRIDIUM 116             
1 43072U 17083C   24205.15776891  .00000097  00000+0  27750-4 0  9992
2 43072  86.3941 252.0249 0002280  90.6061 269.5396 14.34217163344695
IRIDIUM 130             
1 43073U 17083D   24205.05628405  .00000473  00000+0  16178-3 0  9998
2 43073  86.3950 252.2752 0002281  90.7096 269.4361 14.34220466344621
IRIDIUM 151             
1 43074U 17083E   24205.17045369  .00000644  00000+0  22290-3 0  9996
2 43074  86.3944 252.0618 0002072  95.8885 264.2547 14.34219448344665
IRIDIUM 134             
1 43075U 17083F   24205.41781488  .00000250  00000+0  82198-4 0  9990
2 43075  86.3946 251.9569 0002354  88.0441 272.1024 14.34217819344664
IRIDIUM 137             
1 43076U 17083G   24205.15142182  .00000429  00000+0  14596-3 0  9998
2 43076  86.3948 252.1471 0001778  88.3866 271.7533 14.34218394344697
IRIDIUM 141             
1 43077U 17083H   24204.65670880  .00000072  00000+0  18610-4 0  9990
2 43077  86.3942 252.2241 0002336  97.2494 262.8967 14.34217424344623
IRIDIUM 153             
1 43078U 17083J   24205.09725211  .00000142  00000+0  43801-4 0  9997
2 43078  86.3962 220.5119 0002556 104.5374 255.6105 14.34216837345791
IRIDIUM 131             
1 43079U 17083K   24205.20216526  .00000227  00000+0  73910-4 0  9993
2 43079  86.3947 252.1355 0002119  94.4402 265.7036 14.34217407344633
